[
  {
    "OBJECT_NAME": "STARLINK-6270",
    "OBJECT_ID": "23061AZ",
    "EPOCH": "2025-11-11T02:52:47.278560",
    "MEAN_MOTION": 15.025383,
    "ECCENTRICITY": 0.0001268,
    "INCLINATION": 43.0027,
    "RA_OF_ASC_NODE": 96.162,
    "ARG_OF_PERICENTER": 271.662,
    "MEAN_ANOMALY": 88.4077,
    "EPHEMERIS_TYPE": 0,
    "CLASSIFICATION_TYPE": "U",
    "NORAD_CAT_ID": 56421,
    "ELEMENT_SET_NO": 999,
    "REV_AT_EPOCH": 13921,
    "BSTAR": 6.3002e-05,
    "MEAN_MOTION_DOT": 6.48e-06,
    "MEAN_MOTION_DDOT": 0.0,
    "TLE_LINE1": "1 56421U 23061AZ  25315.11999165  .00000648  00000+0  63002-4 0  9999",
    "TLE_LINE2": "2 56421  43.0027  96.1620 0001268 271.6620  88.4077 15.02538300139218",
    "COMMENT": "Grouped by shell and plane from TLE"
  },
  {
    "OBJECT_NAME": "STARLINK-6236",
    "OBJECT_ID": "23061BA",
    "EPOCH": "2025-11-11T02:14:25.452096",
    "MEAN_MOTION": 15.0253956,
    "ECCENTRICITY": 0.0001328,
    "INCLINATION": 43.0034,
    "RA_OF_ASC_NODE": 95.966,
    "ARG_OF_PERICENTER": 267.6633,
    "MEAN_ANOMALY": 92.4058,
    "EPHEMERIS_TYPE": 0,
    "CLASSIFICATION_TYPE": "U",
    "NORAD_CAT_ID": 56422,
    "ELEMENT_SET_NO": 999,
    "REV_AT_EPOCH": 13921,
    "BSTAR": 0.00011833,
    "MEAN_MOTION_DOT": 1.395e-05,
    "MEAN_MOTION_DDOT": 0.0,
    "TLE_LINE1": "1 56422U 23061BA  25315.09335014  .00001395  00000+0  11833-3 0  9998",
    "TLE_LINE2": "2 56422  43.0034  95.9660 0001328 267.6633  92.4058 15.02539560139217",
    "COMMENT": "Grouped by shell and plane from TLE"
  },
  {
    "OBJECT_NAME": "STARLINK-6239",
    "OBJECT_ID": "23061BB",
    "EPOCH": "2025-11-11T02:19:14.678688",
    "MEAN_MOTION": 15.02530057,
    "ECCENTRICITY": 0.0001121,
    "INCLINATION": 43.0039,
    "RA_OF_ASC_NODE": 95.9893,
    "ARG_OF_PERICENTER": 272.2725,
    "MEAN_ANOMALY": 87.7989,
    "EPHEMERIS_TYPE": 0,
    "CLASSIFICATION_TYPE": "U",
    "NORAD_CAT_ID": 56423,
    "ELEMENT_SET_NO": 999,
    "REV_AT_EPOCH": 13921,
    "BSTAR": 0.00022102,
    "MEAN_MOTION_DOT": 2.783e-05,
    "MEAN_MOTION_DDOT": 0.0,
    "TLE_LINE1": "1 56423U 23061BB  25315.09669767  .00002783  00000+0  22102-3 0  9997",
    "TLE_LINE2": "2 56423  43.0039  95.9893 0001121 272.2725  87.7989 15.02530057139218",
    "COMMENT": "Grouped by shell and plane from TLE"
  },
  {
    "OBJECT_NAME": "STARLINK-6242",
    "OBJECT_ID": "23061BC",
    "EPOCH": "2025-11-11T02:04:51.587616",
    "MEAN_MOTION": 15.02529954,
    "ECCENTRICITY": 0.0001285,
    "INCLINATION": 43.0035,
    "RA_OF_ASC_NODE": 95.913,
    "ARG_OF_PERICENTER": 271.1513,
    "MEAN_ANOMALY": 88.9182,
    "EPHEMERIS_TYPE": 0,
    "CLASSIFICATION_TYPE": "U",
    "NORAD_CAT_ID": 56424,
    "ELEMENT_SET_NO": 999,
    "REV_AT_EPOCH": 13921,
    "BSTAR": 1.6086e-05,
    "MEAN_MOTION_DOT": 1.4e-07,
    "MEAN_MOTION_DDOT": 0.0,
    "TLE_LINE1": "1 56424U 23061BC  25315.08670819  .00000014  00000+0  16086-4 0  9997",
    "TLE_LINE2": "2 56424  43.0035  95.9130 0001285 271.1513  88.9182 15.02529954139215",
    "COMMENT": "Grouped by shell and plane from TLE"
  },
  {
    "OBJECT_NAME": "STARLINK-6224",
    "OBJECT_ID": "23061BD",
    "EPOCH": "2025-11-11T02:09:37.927584",
    "MEAN_MOTION": 15.02538622,
    "ECCENTRICITY": 0.0001308,
    "INCLINATION": 43.004,
    "RA_OF_ASC_NODE": 95.9374,
    "ARG_OF_PERICENTER": 273.6885,
    "MEAN_ANOMALY": 86.3807,
    "EPHEMERIS_TYPE": 0,
    "CLASSIFICATION_TYPE": "U",
    "NORAD_CAT_ID": 56425,
    "ELEMENT_SET_NO": 999,
    "REV_AT_EPOCH": 13921,
    "BSTAR": 5.7955e-05,
    "MEAN_MOTION_DOT": 5.79e-06,
    "MEAN_MOTION_DDOT": 0.0,
    "TLE_LINE1": "1 56425U 23061BD  25315.09002231  .00000579  00000+0  57955-4 0  9992",
    "TLE_LINE2": "2 56425  43.0040  95.9374 0001308 273.6885  86.3807 15.02538622139215",
    "COMMENT": "Grouped by shell and plane from TLE"
  },
  {
    "OBJECT_NAME": "STARLINK-5352",
    "OBJECT_ID": "23061BE",
    "EPOCH": "2025-11-10T11:14:41.230464",
    "MEAN_MOTION": 15.02533874,
    "ECCENTRICITY": 0.000129,
    "INCLINATION": 43.0045,
    "RA_OF_ASC_NODE": 99.8574,
    "ARG_OF_PERICENTER": 268.1547,
    "MEAN_ANOMALY": 91.9148,
    "EPHEMERIS_TYPE": 0,
    "CLASSIFICATION_TYPE": "U",
    "NORAD_CAT_ID": 56426,
    "ELEMENT_SET_NO": 999,
    "REV_AT_EPOCH": 13911,
    "BSTAR": 4.8487000000000005e-05,
    "MEAN_MOTION_DOT": 4.51e-06,
    "MEAN_MOTION_DDOT": 0.0,
    "TLE_LINE1": "1 56426U 23061BE  25314.46853276  .00000451  00000+0  48487-4 0  9995",
    "TLE_LINE2": "2 56426  43.0045  99.8574 0001290 268.1547  91.9148 15.02533874139113",
    "COMMENT": "Grouped by shell and plane from TLE"
  },
  {
    "OBJECT_NAME": "STARLINK-5724",
    "OBJECT_ID": "23061BF",
    "EPOCH": "2025-11-11T02:57:34.987968",
    "MEAN_MOTION": 15.02549491,
    "ECCENTRICITY": 0.0001314,
    "INCLINATION": 43.0045,
    "RA_OF_ASC_NODE": 96.1754,
    "ARG_OF_PERICENTER": 287.98,
    "MEAN_ANOMALY": 72.0899,
    "EPHEMERIS_TYPE": 0,
    "CLASSIFICATION_TYPE": "U",
    "NORAD_CAT_ID": 56427,
    "ELEMENT_SET_NO": 999,
    "REV_AT_EPOCH": 13921,
    "BSTAR": 4.7837e-05,
    "MEAN_MOTION_DOT": 4.43e-06,
    "MEAN_MOTION_DDOT": 0.0,
    "TLE_LINE1": "1 56427U 23061BF  25315.12332162  .00000443  00000+0  47837-4 0  9995",
    "TLE_LINE2": "2 56427  43.0045  96.1754 0001314 287.9800  72.0899 15.02549491139218",
    "COMMENT": "Grouped by shell and plane from TLE"
  },
  {
    "OBJECT_NAME": "STARLINK-6238",
    "OBJECT_ID": "23061BG",
    "EPOCH": "2025-11-11T01:55:14.776896",
    "MEAN_MOTION": 15.02542002,
    "ECCENTRICITY": 0.0001217,
    "INCLINATION": 43.0037,
    "RA_OF_ASC_NODE": 95.8614,
    "ARG_OF_PERICENTER": 272.4332,
    "MEAN_ANOMALY": 87.6371,
    "EPHEMERIS_TYPE": 0,
    "CLASSIFICATION_TYPE": "U",
    "NORAD_CAT_ID": 56428,
    "ELEMENT_SET_NO": 999,
    "REV_AT_EPOCH": 13921,
    "BSTAR": 0.00010657,
    "MEAN_MOTION_DOT": 1.236e-05,
    "MEAN_MOTION_DDOT": 0.0,
    "TLE_LINE1": "1 56428U 23061BG  25315.08003214  .00001236  00000+0  10657-3 0  9994",
    "TLE_LINE2": "2 56428  43.0037  95.8614 0001217 272.4332  87.6371 15.02542002139210",
    "COMMENT": "Grouped by shell and plane from TLE"
  },
  {
    "OBJECT_NAME": "STARLINK-6264",
    "OBJECT_ID": "23061BH",
    "EPOCH": "2025-11-11T01:50:27.311136",
    "MEAN_MOTION": 15.02536912,
    "ECCENTRICITY": 0.0001308,
    "INCLINATION": 43.0051,
    "RA_OF_ASC_NODE": 95.8338,
    "ARG_OF_PERICENTER": 266.1955,
    "MEAN_ANOMALY": 93.8738,
    "EPHEMERIS_TYPE": 0,
    "CLASSIFICATION_TYPE": "U",
    "NORAD_CAT_ID": 56429,
    "ELEMENT_SET_NO": 999,
    "REV_AT_EPOCH": 13921,
    "BSTAR": 5.711300000000001e-05,
    "MEAN_MOTION_DOT": 5.68e-06,
    "MEAN_MOTION_DDOT": 0.0,
    "TLE_LINE1": "1 56429U 23061BH  25315.07670499  .00000568  00000+0  57113-4 0  9995",
    "TLE_LINE2": "2 56429  43.0051  95.8338 0001308 266.1955  93.8738 15.02536912139211",
    "COMMENT": "Grouped by shell and plane from TLE"
  },
  {
    "OBJECT_NAME": "STARLINK-5333",
    "OBJECT_ID": "23065E",
    "EPOCH": "2025-11-11T02:44:45.722112",
    "MEAN_MOTION": 15.02541376,
    "ECCENTRICITY": 0.0001044,
    "INCLINATION": 43.0039,
    "RA_OF_ASC_NODE": 95.9768,
    "ARG_OF_PERICENTER": 265.3913,
    "MEAN_ANOMALY": 94.681,
    "EPHEMERIS_TYPE": 0,
    "CLASSIFICATION_TYPE": "U",
    "NORAD_CAT_ID": 56507,
    "ELEMENT_SET_NO": 999,
    "REV_AT_EPOCH": 13923,
    "BSTAR": 8.2193e-05,
    "MEAN_MOTION_DOT": 9.07e-06,
    "MEAN_MOTION_DDOT": 0.0,
    "TLE_LINE1": "1 56507U 23065E   25315.11441808  .00000907  00000+0  82193-4 0  9994",
    "TLE_LINE2": "2 56507  43.0039  95.9768 0001044 265.3913  94.6810 15.02541376139236",
    "COMMENT": "Grouped by shell and plane from TLE"
  },
  {
    "OBJECT_NAME": "STARLINK-30310",
    "OBJECT_ID": "23131B",
    "EPOCH": "2025-11-10T19:02:02.085216",
    "MEAN_MOTION": 15.02530006,
    "ECCENTRICITY": 0.0001325,
    "INCLINATION": 43.005,
    "RA_OF_ASC_NODE": 97.4434,
    "ARG_OF_PERICENTER": 266.3715,
    "MEAN_ANOMALY": 93.6976,
    "EPHEMERIS_TYPE": 0,
    "CLASSIFICATION_TYPE": "U",
    "NORAD_CAT_ID": 57733,
    "ELEMENT_SET_NO": 999,
    "REV_AT_EPOCH": 12205,
    "BSTAR": 2.9076000000000004e-05,
    "MEAN_MOTION_DOT": 1.89e-06,
    "MEAN_MOTION_DDOT": 0.0,
    "TLE_LINE1": "1 57733U 23131B   25314.79307969  .00000189  00000+0  29076-4 0  9995",
    "TLE_LINE2": "2 57733  43.0050  97.4434 0001325 266.3715  93.6976 15.02530006122053",
    "COMMENT": "Grouped by shell and plane from TLE"
  },
  {
    "OBJECT_NAME": "STARLINK-30365",
    "OBJECT_ID": "23131C",
    "EPOCH": "2025-11-11T02:17:40.634880",
    "MEAN_MOTION": 15.02538174,
    "ECCENTRICITY": 0.0001182,
    "INCLINATION": 43.004,
    "RA_OF_ASC_NODE": 96.2423,
    "ARG_OF_PERICENTER": 274.9827,
    "MEAN_ANOMALY": 85.088,
    "EPHEMERIS_TYPE": 0,
    "CLASSIFICATION_TYPE": "U",
    "NORAD_CAT_ID": 57734,
    "ELEMENT_SET_NO": 999,
    "REV_AT_EPOCH": 12208,
    "BSTAR": 1.0001000000000001e-05,
    "MEAN_MOTION_DOT": -6.9e-07,
    "MEAN_MOTION_DDOT": 0.0,
    "TLE_LINE1": "1 57734U 23131C   25315.09560920 -.00000069  00000+0  10001-4 0  9994",
    "TLE_LINE2": "2 57734  43.0040  96.2423 0001182 274.9827  85.0880 15.02538174122084",
    "COMMENT": "Grouped by shell and plane from TLE"
  },
  {
    "OBJECT_NAME": "STARLINK-30371",
    "OBJECT_ID": "23131D",
    "EPOCH": "2025-11-10T11:22:33.847968",
    "MEAN_MOTION": 15.02535924,
    "ECCENTRICITY": 0.0001402,
    "INCLINATION": 43.0042,
    "RA_OF_ASC_NODE": 99.3481,
    "ARG_OF_PERICENTER": 266.388,
    "MEAN_ANOMALY": 93.6802,
    "EPHEMERIS_TYPE": 0,
    "CLASSIFICATION_TYPE": "U",
    "NORAD_CAT_ID": 57735,
    "ELEMENT_SET_NO": 999,
    "REV_AT_EPOCH": 12199,
    "BSTAR": 9.4409e-05,
    "MEAN_MOTION_DOT": 1.072e-05,
    "MEAN_MOTION_DDOT": 0.0,
    "TLE_LINE1": "1 57735U 23131D   25314.47400287  .00001072  00000+0  94409-4 0  9993",
    "TLE_LINE2": "2 57735  43.0042  99.3481 0001402 266.3880  93.6802 15.02535924121992",
    "COMMENT": "Grouped by shell and plane from TLE"
  }
]